OSCAR 7 (AO-7)          
1 07530U 74089B   26191.28585716 -.00000033  00000+0  81097-4 0  9999
2 07530 101.9903 204.7731 0012662  87.4352 340.9074 12.53698448363414
PHASE 3B (AO-10)        
1 14129U 83058B   26190.70523784  .00000106  00000+0  00000+0 0  9990
2 14129  25.9319 215.8523 6003352 121.8543 310.3469  2.05870648295953
UOSAT 2 (UO-11)         
1 14781U 84021B   26191.78011939  .00000875  00000+0  94506-4 0  9990
2 14781  97.8073 157.0938 0009177 103.5627 256.6614 14.90842185260648
LUSAT (LO-19)           
1 20442U 90005G   26192.04281125  .00000044  00000+0  32502-4 0  9992
2 20442  98.8847 214.5050 0012391 132.7513 227.4716 14.34129949905811
EYESAT A (AO-27)        
1 22825U 93061C   26192.19346697  .00000030  00000+0  28428-4 0  9993
2 22825  98.6869 259.5970 0008978  36.9146 323.2653 14.30948413710431
ITAMSAT (IO-26)         
1 22826U 93061D   26192.16571376  .00000023  00000+0  25651-4 0  9992
2 22826  98.6817 259.4892 0009193  20.8495 339.3061 14.31375920710749
RADIO ROSTO (RS15)      
1 23439U 94085A   26192.15072431 -.00000035  00000+0  21280-3 0  9994
2 23439  64.8159 264.4617 0156769 359.4538   0.6192 11.27583514298607
JAS-2 (FO-29)           
1 24278U 96046B   26191.00858423  .00000009  00000+0  43570-4 0  9998
2 24278  98.5223  36.7525 0350566  37.3768 325.1213 13.53275218476259
TECHSAT 1B (GO-32)      
1 25397U 98043D   26191.38503001  .00000024  00000+0  30598-4 0  9993
2 25397  99.0081 184.7300 0002059 122.4891 237.6486 14.24432755454636
ISS (ZARYA)             
1 25544U 98067A   26192.18582566  .00005410  00000+0  10636-3 0  9999
2 25544  51.6302 181.3206 0006688 281.9973  78.0266 15.48977198575473
PCSAT (NO-44)           
1 26931U 01043C   26192.18606088  .00000055  00000+0  51329-4 0  9999
2 26931  67.0491 182.1989 0005966 266.2748  93.7672 14.31964030293884
SAUDISAT 1C (SO-50)     
1 27607U 02058C   26192.02595286  .00000390  00000+0  64019-4 0  9999
2 27607  64.5517  55.2264 0074652 258.0491 101.2239 14.83093538267994
CUTE-1 (CO-55)          
1 27844U 03031E   26191.00816836  .00000182  00000+0  97603-4 0  9992
2 27844  98.6739 199.2802 0010718 116.0719 244.1564 14.24349450194929
CUBESAT XI-IV (CO-57)   
1 27848U 03031J   26191.99204951  .00000130  00000+0  76313-4 0  9991
2 27848  98.6772 199.9452 0010410 130.5633 229.6453 14.23633076194769
MOZHAETS 4 (RS22)       
1 27939U 03042A   26192.19612225  .00000608  00000+0  10185-3 0  9998
2 27939  98.3479  17.2346 0010884 186.0666 303.5935 14.73510312219084
CUBESAT XI-V            
1 28895U 05043F   26191.36800381  .00000898  00000+0  14887-3 0  9997
2 28895  98.3010 347.4805 0015096 129.3634 230.8913 14.72694805105160
CUTE-1.7+APD II (CO-65) 
1 32785U 08021C   26192.17790374  .00003162  00000+0  20044-3 0  9998
2 32785  97.8285 174.1007 0007336 315.7430  44.3211 15.09676401988816
SEEDS II (CO-66)        
1 32791U 08021J   26191.43592964  .00013245  00000+0  41058-3 0  9999
2 32791  97.7526 190.4573 0002534 167.6964 192.4340 15.33559548990854
YUBILEINY (RS30)        
1 32953U 08025A   26192.16140537  .00000070  00000+0  43061-3 0  9997
2 32953  82.5055 340.5258 0018553 258.3917 101.5080 12.43180753822677
KKS-1 (KISEKI)          
1 33499U 09002H   26192.20662356  .00000692  00000+0  91609-4 0  9994
2 33499  98.1178 115.0295 0007100 202.5926 157.4975 14.83183418939753
SWISSCUBE               
1 35932U 09051B   26192.18281227  .00000531  00000+0  11450-3 0  9990
2 35932  98.4014 100.4874 0007656 129.8333 230.3542 14.62526269892660
BEESAT-1                
1 35933U 09051C   26192.20478775  .00000437  00000+0  97507-4 0  9993
2 35933  98.3941 100.0947 0005911 140.2385 219.9249 14.61758109892691
ITUPSAT1                
1 35935U 09051E   26191.18906354  .00000448  00000+0  10253-3 0  9994
2 35935  98.4025  98.2308 0007739 157.5053 202.6487 14.60474362892091
XIWANG-1 (HOPE-1)       
1 36122U 09072B   26192.18360392 -.00000323  00000+0 -72839-3 0  9995
2 36122 100.4029 145.6333 0007401 173.6926 186.4281 13.16438648796166
O/OREOS (USA 219)       
1 37224U 10062C   26190.96510575  .00001388  00000+0  13649-3 0  9998
2 37224  71.9708  28.7386 0013679  15.3805 344.7778 14.93839355120041
JUGNU                   
1 37839U 11058B   26192.23374851  .00000361  00000+0  48953-4 0  9990
2 37839  19.9591 162.3323 0018443 342.6467 134.7204 14.13782829762436
SRMSAT                  
1 37841U 11058D   26191.25823061  .00000355  00000+0  48960-4 0  9997
2 37841  19.9719 279.8299 0011870  97.3618 287.0554 14.11580397761080
STRAND-1                
1 39090U 13009E   26191.44882477  .00000176  00000+0  73431-4 0  9992
2 39090  98.3931  11.1117 0009149 154.2343 205.9301 14.37177134700402
ZACUBE-1 (TSHEPISOSAT)  
1 39417U 13066B   26192.20230991  .00001491  00000+0  11848-3 0  9995
2 39417  97.8013 154.6584 0043797 168.0001 192.2277 15.01317932684339
GOMX-1                  
1 39430U 13066Q   26192.15398193  .00001000  00000+0  15616-3 0  9996
2 39430  97.6478  31.1045 0128697   1.2098 358.9396 14.69536877673431
